IRIDIUM 155             
1 43573U 18061E   25333.71266721  .00000116  00000+0  34255-4 0  9996
2 43573  86.3962 140.0786 0001899  96.6297 263.5115 14.34218054384763
IRIDIUM 154             
1 43574U 18061F   25333.83317661  .00000015  00000+0 -17329-5 0  9993
2 43574  86.3973 140.1519 0001968  91.5763 268.5658 14.34217473384839
IRIDIUM 163             
1 43575U 18061G   25333.74438435  .00000105  00000+0  30481-4 0  9999
2 43575  86.3964 140.1107 0001925  88.1312 272.0104 14.34216454384797
IRIDIUM 156             
1 43576U 18061H   25333.71900868  .00000052  00000+0  11607-4 0  9991
2 43576  86.3964 140.1282 0001953  98.8525 261.2892 14.34217951384783
IRIDIUM 164             
1 43577U 18061J   25333.69999706  .00000111  00000+0  32521-4 0  9992
2 43577  86.3965 140.1734 0002180  93.2804 266.8641 14.34217189384820
IRIDIUM 159             
1 43578U 18061K   25333.52873182 -.00000004  00000+0 -83436-5 0  9999
2 43578  86.3968 140.1860 0002014  88.0538 272.0888 14.34217561384765
IRIDIUM 180             
1 43922U 19002A   25333.80730291 -.00000586  00000+0 -21619-3 0  9990
2 43922  86.3969  76.9475 0001905  88.3362 271.8052 14.34217812360418
IRIDIUM 176             
1 43923U 19002B   25333.80970527  .00000790  00000+0  12138-3 0  9990
2 43923  86.6090  76.9188 0002046 100.2667 259.8781 14.72252529369912
IRIDIUM 168             
1 43924U 19002C   25333.80096106  .00000234  00000+0  76359-4 0  9992
2 43924  86.3974  77.0218 0001997  95.3106 264.8318 14.34216767360390
IRIDIUM 173             
1 43925U 19002D   25333.71850409  .00000336  00000+0  11307-3 0  9991
2 43925  86.3966  76.9532 0001927  96.3862 263.7553 14.34222504360364
IRIDIUM 169             
1 43926U 19002E   25333.83584615  .00000385  00000+0  11952-3 0  9998
2 43926  86.4209 108.5541 0001089 119.5920 240.5387 14.38603551361560
IRIDIUM 172             
1 43927U 19002F   25333.71216418  .00000277  00000+0  91700-4 0  9999
2 43927  86.3968  76.9632 0002007  90.3813 269.7613 14.34218981360377
IRIDIUM 175             
1 43928U 19002G   25333.66902007  .00000973  00000+0  15029-3 0  9992
2 43928  86.1516  20.1223 0002980 103.1318 257.0231 14.72256141369888
IRIDIUM 171             
1 43929U 19002H   25333.83267311  .00000240  00000+0  78712-4 0  9990
2 43929  86.3975  77.1972 0002147 103.3718 256.7718 14.34217485360382
IRIDIUM 170             
1 43930U 19002J   25333.81588730  .00001160  00000+0  18011-3 0  9998
2 43930  86.6089  76.9199 0002293  89.7850 270.3630 14.72254157369920
IRIDIUM 167             
1 43931U 19002K   25333.82633101  .00000312  00000+0  10422-3 0  9999
2 43931  86.3970  76.9365 0002047 108.7209 251.4209 14.34217349360382
IRIDIUM 181             
1 56726U 23068S   25333.71514116  .00000156  00000+0  40466-4 0  9992
2 56726  86.4504 140.1653 0002661  92.2862 267.8643 14.43310568133669
IRIDIUM 177             
1 56727U 23068T   25333.62753902  .00001711  00000+0  22166-3 0  9995
2 56727  86.1973  63.5563 0002324  88.9225 271.2262 14.80242925136847
IRIDIUM 174             
1 56728U 23068U   25333.80353376  .00001229  00000+0  19103-3 0  9998
2 56728  86.6096  77.0524 0002346  89.1766 270.9720 14.72250529136680
IRIDIUM 178             
1 56729U 23068V   25333.81933604  .00001565  00000+0  20246-3 0  9991
2 56729  86.6528 108.6968 0002180  96.8935 263.2534 14.80237553136873
IRIDIUM 179             
1 56730U 23068W   25333.81394859  .00001563  00000+0  20224-3 0  9990
2 56730  86.6768 117.0828 0002454 102.0374 258.1123 14.80244782136870
